H1 CPF 01  gfz 2022 01 13 01  5131 tandemx   
H2 1003001  6202 36605    2022 01 13 00 59 42 2022 01 18 00 00 42   120 1 1  0 0 0
H9
10 0 59595  59022.000000  0    2598082.507    266090.833   6363792.782
10 0 59595  59142.000000  0    1817882.797   -142224.847   6632198.611
10 0 59595  59262.000000  0     998963.738   -534066.644   6784059.219
10 0 59595  59382.000000  0     155970.275   -902048.742   6816725.898
10 0 59595  59502.000000  0    -695915.050  -1239462.954   6729630.784
10 0 59595  59622.000000  0   -1541244.854  -1540400.960   6524295.295
10 0 59595  59742.000000  0   -2364585.420  -1799857.526   6204303.838
10 0 59595  59862.000000  0   -3150796.251  -2013813.057   5775246.154
10 0 59595  59982.000000  0   -3885311.206  -2179297.027   5244628.298
10 0 59595  60102.000000  0   -4554413.786  -2294429.761   4621746.505
10 0 59595  60222.000000  0   -5145499.448  -2358440.773   3917528.596
10 0 59595  60342.000000  0   -5647319.947  -2371662.739   3144345.180
10 0 59595  60462.000000  0   -6050205.349  -2335502.203   2315794.404
10 0 59595  60582.000000  0   -6346259.815  -2252388.564   1446462.199
10 0 59595  60702.000000  0   -6529524.685  -2125700.583    551659.243
10 0 59595  60822.000000  0   -6596101.669  -1959671.731   -352856.189
10 0 59595  60942.000000  0   -6544236.614  -1759277.492  -1251164.703
10 0 59595  61062.000000  0   -6374358.410  -1530107.601  -2127475.349
10 0 59595  61182.000000  0   -6089073.759  -1278226.960  -2966410.412
10 0 59595  61302.000000  0   -5693118.783  -1010028.797  -3753279.912
10 0 59595  61422.000000  0   -5193269.461   -732083.439  -4474340.426
10 0 59595  61542.000000  0   -4598213.497   -450986.356  -5117033.106
10 0 59595  61662.000000  0   -3918387.006   -173209.866  -5670196.720
10 0 59595  61782.000000  0   -3165780.521     95038.427  -6124252.225
10 0 59595  61902.000000  0   -2353720.351    347947.558  -6471356.549
10 0 59595  62022.000000  0   -1496629.857    580222.316  -6705526.556
10 0 59595  62142.000000  0    -609773.708    787188.235  -6822731.850
10 0 59595  62262.000000  0     291009.361    964881.990  -6820955.449
10 0 59595  62382.000000  0    1189581.326   1110124.045  -6700225.040
10 0 59595  62502.000000  0    2069787.758   1220574.161  -6462615.291
10 0 59595  62622.000000  0    2915742.826   1294769.103  -6112215.988
10 0 59595  62742.000000  0    3712111.945   1332140.992  -5655068.076
10 0 59595  62862.000000  0    4444386.891   1333016.221  -5099069.474
10 0 59595  62982.000000  0    5099152.508   1298595.452  -4453850.909
10 0 59595  63102.000000  0    5664338.709   1230914.645  -3730619.402
10 0 59595  63222.000000  0    6129451.472   1132787.259  -2941972.518
10 0 59595  63342.000000  0    6485778.998   1007728.690  -2101685.782
10 0 59595  63462.000000  0    6726568.087    859864.766  -1224474.357
10 0 59595  63582.000000  0    6847163.829    693825.321   -325733.116
10 0 59595  63702.000000  0    6845108.246    514626.046    578738.652
10 0 59595  63822.000000  0    6720196.565    327541.936   1473021.525
10 0 59595  63942.000000  0    6474489.122    137973.685   2341365.253
10 0 59595  64062.000000  0    6112275.678    -48687.709   3168475.777
10 0 59595  64182.000000  0    5639995.048   -227195.902   3939792.035
10 0 59595  64302.000000  0    5066111.943   -392578.370   4641746.435
10 0 59595  64422.000000  0    4400956.828   -540258.403   5262006.460
10 0 59595  64542.000000  0    3656528.122   -666166.707   5789690.563
10 0 59595  64662.000000  0    2846266.481   -766838.654   6215554.542
10 0 59595  64782.000000  0    1984804.964   -839496.842   6532148.006
10 0 59595  64902.000000  0    1087700.429   -882116.969   6733939.470
10 0 59595  65022.000000  0     171148.642   -893475.973   6817407.730
10 0 59595  65142.000000  0    -748308.998   -873181.112   6781098.034
10 0 59595  65262.000000  0   -1654082.832   -821680.321   6625644.912
10 0 59595  65382.000000  0   -2529832.640   -740252.711   6353761.344
10 0 59595  65502.000000  0   -3359760.993   -630979.866   5970195.031
10 0 59595  65622.000000  0   -4128900.007   -496698.255   5481652.014
10 0 59595  65742.000000  0   -4823386.405   -340934.125   4896686.080
10 0 59595  65862.000000  0   -5430718.540   -167821.392   4225554.135
10 0 59595  65982.000000  0   -5939989.975     17995.720   3480040.046
10 0 59595  66102.000000  0   -6342094.272    211473.508   2673250.106
10 0 59595  66222.000000  0   -6629898.383    407291.079   1819382.722
10 0 59595  66342.000000  0   -6798378.547    599980.659    933474.736
10 0 59595  66462.000000  0   -6844714.974    784062.468     31129.844
10 0 59595  66582.000000  0   -6768341.882    954181.423   -871765.195
10 0 59595  66702.000000  0   -6570950.872   1105241.636  -1759329.414
10 0 59595  66822.000000  0   -6256449.912   1232535.011  -2615973.729
10 0 59595  66942.000000  0   -5830880.040   1331862.396  -3426682.114
10 0 59595  67062.000000  0   -5302286.778   1399641.913  -4177279.324
10 0 59595  67182.000000  0   -4680554.959   1433002.728  -4854677.406
10 0 59595  67302.000000  0   -3977211.511   1429862.591  -5447098.966
10 0 59595  67422.000000  0   -3205201.630   1388987.454  -5944273.065
10 0 59595  67542.000000  0   -2378644.016   1310031.817  -6337603.018
10 0 59595  67662.000000  0   -1512569.149   1193560.047  -6620304.040
10 0 59595  67782.000000  0    -622645.582   1041048.568  -6787508.389
10 0 59595  67902.000000  0     275098.833    854868.244  -6836339.060
10 0 59595  68022.000000  0    1164557.526    638248.550  -6765954.560
10 0 59595  68142.000000  0    2029828.260    395222.590  -6577564.112
10 0 59595  68262.000000  0    2855491.543    130554.146  -6274408.487
10 0 59595  68382.000000  0    3626881.162   -150351.663  -5861710.429
10 0 59595  68502.000000  0    4330342.108   -441554.194  -5346592.698
10 0 59595  68622.000000  0    4953473.224   -736696.830  -4737967.264
10 0 59595  68742.000000  0    5485352.493  -1029139.508  -4046392.734
10 0 59595  68862.000000  0    5916737.238  -1312101.104  -3283900.691
10 0 59595  68982.000000  0    6240235.817  -1578809.276  -2463793.797
10 0 59595  69102.000000  0    6450446.623  -1822654.602  -1600417.788
10 0 59595  69222.000000  0    6544059.855  -2037345.038   -708910.572
10 0 59595  69342.000000  0    6519919.093  -2217056.573    195066.302
10 0 59595  69462.000000  0    6379040.632  -2356576.935   1095609.227
10 0 59595  69582.000000  0    6124588.699  -2451437.435   1976861.109
10 0 59595  69702.000000  0    5761806.692  -2498030.548   2823299.825
10 0 59595  69822.000000  0    5297906.850  -2493709.217   3620020.269
10 0 59595  69942.000000  0    4741919.741  -2436865.279   4353002.687
10 0 59595  70062.000000  0    4104511.394  -2326985.523   5009361.403
10 0 59595  70182.000000  0    3397771.284  -2164685.348   5577573.188
10 0 59595  70302.000000  0    2634973.206  -1951717.849   6047677.461
10 0 59595  70422.000000  0    1830319.177  -1690958.470   6411445.394
10 0 59595  70542.000000  0     998670.285  -1386366.959   6662518.078
10 0 59595  70662.000000  0     155269.108  -1042926.509   6796511.798
10 0 59595  70782.000000  0    -684540.414   -666561.007   6811088.990
10 0 59595  70902.000000  0   -1505590.930   -264032.658   6705995.613
10 0 59595  71022.000000  0   -2293164.220    157179.161   6483065.251
10 0 59595  71142.000000  0   -3033254.072    589016.166   6146189.584
10 0 59595  71262.000000  0   -3712816.255   1022994.060   5701255.394
10 0 59595  71382.000000  0   -4320002.156   1450367.656   5156048.203
10 0 59595  71502.000000  0   -4844371.495   1862305.837   4520122.041
10 0 59595  71622.000000  0   -5277079.327   2250073.547   3804636.668
10 0 59595  71742.000000  0   -5611032.974   2605216.090   3022164.443
10 0 59595  71862.000000  0   -5841015.811   2919742.000   2186470.505
10 0 59595  71982.000000  0   -5963775.917   3186300.576   1312268.954
10 0 59595  72102.000000  0   -5978075.936   3398349.834    414957.744
10 0 59595  72222.000000  0   -5884700.657   3550309.057   -489660.499
10 0 59595  72342.000000  0   -5686424.463   3637692.643  -1385665.158
10 0 59595  72462.000000  0   -5387939.462   3657222.703  -2257307.126
10 0 59595  72582.000000  0   -4995743.066   3606915.827  -3089294.211
10 0 59595  72702.000000  0   -4517991.021   3486142.885  -3867064.142
10 0 59595  72822.000000  0   -3964319.435   3295660.395  -4577039.960
10 0 59595  72942.000000  0   -3345642.506   3037614.000  -5206863.470
10 0 59595  73062.000000  0   -2673930.560   2715514.189  -5745602.336
10 0 59595  73182.000000  0   -1961974.976   2334186.465  -6183930.747
10 0 59595  73302.000000  0   -1223141.451   1899695.437  -6514280.338
10 0 59595  73422.000000  0    -471120.019   1419245.836  -6730958.466
10 0 59595  73542.000000  0     280324.704    901062.572  -6830236.251
10 0 59595  73662.000000  0    1017598.822    354252.011  -6810405.994
10 0 59595  73782.000000  0    1727520.316   -211354.849  -6671808.901
10 0 59595  73902.000000  0    2397549.363   -785375.159  -6416828.431
10 0 59595  74022.000000  0    3016005.334  -1357059.723  -6049854.290
10 0 59595  74142.000000  0    3572268.393  -1915489.031  -5577214.387
10 0 59595  74262.000000  0    4056963.165  -2449777.857  -5007077.632
10 0 59595  74382.000000  0    4462121.489  -2949286.677  -4349323.452
10 0 59595  74502.000000  0    4781318.629  -3403833.497  -3615380.600
10 0 59595  74622.000000  0    5009782.669  -3803902.170  -2818037.915
10 0 59595  74742.000000  0    5144474.289  -4140843.912  -1971227.209
10 0 59595  74862.000000  0    5184132.844  -4407065.879  -1089781.589
10 0 59595  74982.000000  0    5129287.915  -4596203.056   -189173.763
10 0 59595  75102.000000  0    4982234.125  -4703268.564    714761.065
10 0 59595  75222.000000  0    4746969.832  -4724776.848   1606111.984
10 0 59595  75342.000000  0    4429100.739  -4658836.482   2469181.570
10 0 59595  75462.000000  0    4035711.794  -4505210.746   3288770.453
99
